STARLINK-4152           
1 53136U 22083E   26068.61210826 -.00000137  00000+0  94972-5 0  9998
2 53136  53.2186 174.4695 0001398  92.2733 267.8419 15.08837540202190
PRSC-S1                 
1 65055U 25164A   26068.60758212  .00007316  00000+0  46631-3 0  9991
2 65055  41.1290 129.3637 0004466 348.3012  11.7698 15.08919510 33403
