[{"OBJECT_NAME":"STARLINK-4152","OBJECT_ID":"2022-083E","EPOCH":"2026-03-09T14:41:26.153664","MEAN_MOTION":15.0883754,"ECCENTRICITY":0.0001398,"INCLINATION":53.2186,"RA_OF_ASC_NODE":174.4695,"ARG_OF_PERICENTER":92.2733,"MEAN_ANOMALY":267.8419,"EPHEMERIS_TYPE":0,"CLASSIFICATION_TYPE":"U","NORAD_CAT_ID":53136,"ELEMENT_SET_NO":999,"REV_AT_EPOCH":20219,"BSTAR":9.4972e-6,"MEAN_MOTION_DOT":-1.37e-6,"MEAN_MOTION_DDOT":0},{"OBJECT_NAME":"PRSC-S1","OBJECT_ID":"2025-164A","EPOCH":"2026-03-09T14:34:55.095168","MEAN_MOTION":15.0891951,"ECCENTRICITY":0.0004466,"INCLINATION":41.129,"RA_OF_ASC_NODE":129.3637,"ARG_OF_PERICENTER":348.3012,"MEAN_ANOMALY":11.7698,"EPHEMERIS_TYPE":0,"CLASSIFICATION_TYPE":"U","NORAD_CAT_ID":65055,"ELEMENT_SET_NO":999,"REV_AT_EPOCH":3340,"BSTAR":0.00046631,"MEAN_MOTION_DOT":7.316e-5,"MEAN_MOTION_DDOT":0}]
